NORAD_CAT_ID,OBJECT_NAME,OBJECT_TYPE,EPOCH,MEAN_MOTION,ECCENTRICITY,INCLINATION,RA_OF_ASC_NODE,ARG_OF_PERICENTER,MEAN_ANOMALY,BSTAR,MEAN_MOTION_DOT,MEAN_MOTION_DDOT,TLE_LINE0,TLE_LINE1,TLE_LINE2,SEMIMAJOR_AXIS,PERIOD,APOGEE,PERIGEE,DECAYED
49156.0,STARLINK-3085,PAYLOAD,2021-09-28 06:00:02,15.69844939,0.0003321,70.0001,87.1227,266.518,12.3578,-0.0013112,-0.00154502,0.0,0 STARLINK-3085,1 49156U 21082AC  21271.25002315 -.00154502  00000-0 -13112-2 0  9998,2 49156  70.0001  87.1227 0003321 266.5180  12.3578 15.69844939  3400,6737.478,91.729,361.58,357.105,0.0
49156.0,STARLINK-3085,PAYLOAD,2021-09-28 14:00:01,15.69750215,0.0003487,70.0003,86.1859,265.6239,96.359,-4.7991e-05,-5.937e-05,0.0,0 STARLINK-3085,1 49156U 21082AC  21271.58334491 -.00005937  00000-0 -47991-4 0  9998,2 49156  70.0003  86.1859 0003487 265.6239  96.3590 15.69750215  3454,6737.749,91.734,361.963,357.264,0.0
49156.0,STARLINK-3085,PAYLOAD,2021-09-28 22:00:00,15.69751651,0.0003545,70.0005,85.2554,277.2922,167.8528,0.00065269,0.00078445,0.0,0 STARLINK-3085,1 49156U 21082AC  21271.91667824  .00078445  00000-0  65269-3 0  9993,2 49156  70.0005  85.2554 0003545 277.2922 167.8528 15.69751651  3507,6737.745,91.734,361.99800000000016,357.221,0.0
49156.0,STARLINK-3085,PAYLOAD,2021-09-29 06:00:00,15.69845358,0.0003511,70.0002,84.3157,274.2206,254.0836,-0.001257,-0.00148244,0.0,0 STARLINK-3085,1 49156U 21082AC  21272.25001157 -.00148244  00000-0 -12570-2 0  9995,2 49156  70.0002  84.3157 0003511 274.2206 254.0836 15.69845358  3552,6737.476,91.729,361.707,356.976,0.0
49156.0,STARLINK-3085,PAYLOAD,2021-09-29 14:00:01,15.69855577,0.0003503999999999,70.0012,83.3825,271.6946,339.825,-0.0011602,-0.00137082,0.0,0 STARLINK-3085,1 49156U 21082AC  21272.58334491 -.00137082  00000-0 -11602-2 0  9994,2 49156  70.0012  83.3825 0003504 271.6946 339.8250 15.69855577  3611,6737.446999999999,91.728,361.673,356.951,0.0
49156.0,STARLINK-3085,PAYLOAD,2021-09-29 22:00:01,15.69733517,0.0003585,70.0006,82.4439,279.1029,55.6847,0.0004648,0.00055608,0.0,0 STARLINK-3085,1 49156U 21082AC  21272.91668981  .00055608  00000-0  46480-3 0  9999,2 49156  70.0006  82.4439 0003585 279.1029  55.6847 15.69733517  3668,6737.795999999999,91.735,362.077,357.246,0.0
49156.0,STARLINK-3085,PAYLOAD,2021-09-30 06:00:02,15.69718421,0.0003441,70.0011,81.5087,272.758,145.1627,0.00033757,0.00040228,0.0,0 STARLINK-3085,1 49156U 21082AC  21273.25002315  .00040228  00000-0  33757-3 0  9995,2 49156  70.0011  81.5087 0003441 272.7580 145.1627 15.69718421  3719,6737.84,91.736,362.023,357.386,0.0
49156.0,STARLINK-3085,PAYLOAD,2021-09-30 14:00:01,15.69775592,0.0003498999999999,70.0013,80.572,273.2966,227.6576,-0.00018206,-0.00021913,0.0,0 STARLINK-3085,1 49156U 21082AC  21273.58334491 -.00021913  00000-0 -18206-3 0  9998,2 49156  70.0013  80.5720 0003499 273.2966 227.6576 15.69775592  2924,6737.676,91.733,361.899,357.184,0.0
49156.0,STARLINK-3085,PAYLOAD,2021-10-01 06:00:02,15.69719404,0.0003296,70.0006,78.6977,273.9556,33.3833,0.00015683,0.00018528,0.0,0 STARLINK-3085,1 49156U 21082AC  21274.25002315  .00018528  00000-0  15683-3 0  9992,2 49156  70.0006  78.6977 0003296 273.9556  33.3833 15.69719404  3878,6737.837,91.736,361.923,357.481,0.0
49156.0,STARLINK-3085,PAYLOAD,2021-10-01 14:00:01,15.69769086,0.0003355,70.0008,77.7607,274.1754,116.1956,-0.00020007,-0.00024047,0.0,0 STARLINK-3085,1 49156U 21082AC  21274.58334491 -.00024047  00000-0 -20007-3 0  9992,2 49156  70.0008  77.7607 0003355 274.1754 116.1956 15.69769086  3089,6737.695,91.733,361.82,357.2990000000001,0.0
49156.0,STARLINK-3085,PAYLOAD,2021-10-01 22:00:00,15.69767915,0.0003408,70.0006,76.8237,280.4195,193.0865,-0.00012527,-0.00015151,0.0,0 STARLINK-3085,1 49156U 21082AC  21274.91667824 -.00015151  00000-0 -12527-3 0  9992,2 49156  70.0006  76.8237 0003408 280.4195 193.0865 15.69767915  3143,6737.698,91.733,361.859,357.267,0.0
49156.0,STARLINK-3085,PAYLOAD,2021-10-02 06:00:00,15.69699199,0.0003513,70.0007,75.8867,275.3579,281.3157,0.00055596,0.00066548,0.0,0 STARLINK-3085,1 49156U 21082AC  21275.25001157  .00066548  00000-0  55596-3 0  9998,2 49156  70.0007  75.8867 0003513 275.3579 281.3157 15.69699199  3196,6737.895,91.737,362.127,357.39300000000014,0.0
49156.0,STARLINK-3085,PAYLOAD,2021-10-02 12:00:02,15.69754898,0.0003502,70.001,75.1844,273.6191,255.4287,0.00014452,0.00017079,0.0,0 STARLINK-3085,1 49156U 21082AC  21275.50002315  .00017079  00000-0  14452-3 0  9994,2 49156  70.0010  75.1844 0003502 273.6191 255.4287 15.69754898  4068,6737.735,91.734,361.96,357.241,0.0
49156.0,STARLINK-3085,PAYLOAD,2021-10-02 22:00:00,15.69742083,0.0003683,70.0002,74.013,280.8173,82.0158,0.00043175,0.00051634,0.0,0 STARLINK-3085,1 49156U 21082AC  21275.91667824  .00051634  00000-0  43175-3 0  9990,2 49156  70.0002  74.0130 0003683 280.8173  82.0158 15.69742083  4137,6737.772,91.735,362.11800000000005,357.155,0.0
49156.0,STARLINK-3085,PAYLOAD,2021-10-03 14:00:01,15.69756974,0.0003503999999999,70.0004,72.1383,276.9101,252.2315,-0.00011012,-0.00013342,0.0,0 STARLINK-3085,1 49156U 21082AC  21276.58334491 -.00013342  00000-0 -11012-3 0  9996,2 49156  70.0004  72.1383 0003504 276.9101 252.2315 15.69756974  4238,6737.729,91.734,361.955,357.233,0.0
49156.0,STARLINK-3085,PAYLOAD,2021-10-03 22:00:01,15.69995638,0.0003667,70.0,71.1985,279.0852,333.2064,-0.0057823,-0.00646465,0.0,0 STARLINK-3085,1 49156U 21082AC  21276.91668981 -.00646465  00000-0 -57823-2 0  9994,2 49156  70.0000  71.1985 0003667 279.0852 333.2064 15.69995638  3465,6737.045999999999,91.72,361.382,356.441,0.0
49156.0,STARLINK-3085,PAYLOAD,2021-10-04 06:00:02,15.69662311,0.0003604,70.0006,70.2648,275.7422,59.697,0.00075518,0.00090595,0.0,0 STARLINK-3085,1 49156U 21082AC  21277.25002315  .00090595  00000-0  75518-3 0  9992,2 49156  70.0006  70.2648 0003604 275.7422  59.6970 15.69662311  4346,6738.0,91.739,362.294,357.43699999999984,0.0
49156.0,STARLINK-3085,PAYLOAD,2021-10-04 14:00:01,15.69748423,0.000373,70.001,69.3275,277.1419,141.2884,-0.00024915,-0.00029851,0.0,0 STARLINK-3085,1 49156U 21082AC  21277.58334491 -.00029851  00000-0 -24915-3 0  9995,2 49156  70.0010  69.3275 0003730 277.1419 141.2884 15.69748423  3562,6737.754,91.734,362.132,357.106,0.0
49156.0,STARLINK-3085,PAYLOAD,2021-10-04 20:00:01,15.69732116,0.000375,70.0005,68.6231,282.9388,107.8291,0.00015457,0.00018268,0.0,0 STARLINK-3085,1 49156U 21082AC  21277.83334491  .00018268  00000-0  15457-3 0  9992,2 49156  70.0005  68.6231 0003750 282.9388 107.8291 15.69732116  4430,6737.8,91.735,362.192,357.139,0.0
49156.0,STARLINK-3085,PAYLOAD,2021-10-04 22:00:00,15.69851294,0.0003627,70.0001,68.3881,282.8808,218.6396,-0.0024552,-0.00284813,0.0,0 STARLINK-3085,1 49156U 21082AC  21277.91667824 -.00284813  00000-0 -24552-2 0  9998,2 49156  70.0001  68.3881 0003627 282.8808 218.6396 15.69851294  3629,6737.459,91.728,361.768,356.881,0.0
49156.0,STARLINK-3085,PAYLOAD,2021-10-05 04:00:00,15.69509692,0.0003701,70.0003,67.6835,278.3289,195.6117,0.0017698,0.00214431,0.0,0 STARLINK-3085,1 49156U 21082AC  21278.16667824  .00214431  00000-0  17698-2 0  9996,2 49156  70.0003  67.6835 0003701 278.3289 195.6117 15.69509692  4480,6738.437,91.748,362.796,357.80800000000005,0.0
49156.0,STARLINK-3085,PAYLOAD,2021-10-05 14:00:01,15.69749382,0.0003425,70.0001,66.5102,274.478,33.1511,-3.6359e-05,-4.55e-05,0.0,0 STARLINK-3085,1 49156U 21082AC  21278.58334491 -.00004550  00000-0 -36359-4 0  9991,2 49156  70.0001  66.5102 0003425 274.4780  33.1511 15.69749382  3721,6737.751,91.734,361.924,357.30800000000005,0.0
49156.0,STARLINK-3085,PAYLOAD,2021-10-05 22:00:01,15.69790831,0.0003692,70.0007,65.5799,282.8548,108.1523,-0.00056393,-0.00067117,0.0,0 STARLINK-3085,1 49156U 21082AC  21278.91668981 -.00067117  00000-0 -56393-3 0  9999,2 49156  70.0007  65.5799 0003692 282.8548 108.1523 15.69790831  3742,6737.632,91.732,361.985,357.01,0.0
49156.0,STARLINK-3085,PAYLOAD,2021-10-06 06:00:00,15.69696532,0.0003549,70.0012,64.6426,276.6969,197.4044,0.00082576,0.00099325,0.0,0 STARLINK-3085,1 49156U 21082AC  21279.25001157  .00099325  00000-0  82576-3 0  9999,2 49156  70.0012  64.6426 0003549 276.6969 197.4044 15.69696532  4657,6737.901999999999,91.737,362.159,357.376,0.0
49156.0,STARLINK-3085,PAYLOAD,2021-10-06 12:00:00,15.69828335,0.0003489,70.0009,63.9378,276.8483,169.5575,-0.0011970999999999,-0.00141207,0.0,0 STARLINK-3085,1 49156U 21082AC  21279.50001157 -.00141207  00000-0 -11971-2 0  9996,2 49156  70.0009  63.9378 0003489 276.8483 169.5575 15.69828335  4698,6737.525,91.73,361.741,357.039,0.0
49156.0,STARLINK-3085,PAYLOAD,2021-10-06 14:00:01,15.69979705,0.0003553,70.0011,63.7031,274.9048,282.3276,-0.0050094,-0.00565078,0.0,0 STARLINK-3085,1 49156U 21082AC  21279.58335648 -.00565078  00000-0 -50094-2 0  9994,2 49156  70.0011  63.7031 0003553 274.9048 282.3276 15.69979705  3849,6737.092,91.721,361.351,356.56300000000016,0.0
49156.0,STARLINK-3085,PAYLOAD,2021-10-06 20:00:01,15.69355902,0.0003856,70.0003,62.9986,279.6116,250.1103,0.0036797,0.00456417,0.0,0 STARLINK-3085,1 49156U 21082AC  21279.83335648  .00456417  00000-0  36797-2 0  9990,2 49156  70.0003  62.9986 0003856 279.6116 250.1103 15.69355902  4743,6738.877,91.757,363.341,358.144,0.0
49156.0,STARLINK-3085,PAYLOAD,2021-10-06 22:00:00,15.69307382,0.0003724,69.9999,62.7636,278.486,1.8945,0.0054628,0.00696376,0.0,0 STARLINK-3085,1 49156U 21082AC  21279.91667824  .00696376  00000-0  54628-2 0  9996,2 49156  69.9999  62.7636 0003724 278.4860   1.8945 15.69307382  3902,6739.016,91.76,363.391,358.372,0.0
49156.0,STARLINK-3085,PAYLOAD,2021-10-07 06:00:00,15.69696649,0.0003401,70.0016,61.8323,277.1468,86.3801,0.00090316,0.00108775,0.0,0 STARLINK-3085,1 49156U 21082AC  21280.25001157  .00108775  00000-0  90316-3 0  9992,2 49156  70.0016  61.8323 0003401 277.1468  86.3801 15.69696649  4817,6737.901999999999,91.737,362.059,357.475,0.0
